[
  {
    "COMMENT": "GENERATED VIA SPACETRACK.ORG API",
    "ORIGINATOR": "18 SPCS",
    "NORAD_CAT_ID": "46984",
    "OBJECT_NAME": "S6 MICHAEL FREILICH",
    "OBJECT_TYPE": "PAYLOAD",
    "CLASSIFICATION_TYPE": "U",
    "INTLDES": "20086A",
    "EPOCH": "2023-05-30 15:28:10",
    "EPOCH_MICROSECONDS": "53984",
    "MEAN_MOTION": "12.80929005",
    "ECCENTRICITY": "0.0007975",
    "INCLINATION": "66.0404",
    "RA_OF_ASC_NODE": "287.8907",
    "ARG_OF_PERICENTER": "269.8479",
    "MEAN_ANOMALY": "90.1622",
    "EPHEMERIS_TYPE": "0",
    "ELEMENT_SET_NO": "999",
    "REV_AT_EPOCH": "11770",
    "BSTAR": "-0.000027066",
    "MEAN_MOTION_DOT": "-0.00000067",
    "MEAN_MOTION_DDOT": "0",
    "FILE": "3921192",
    "TLE_LINE0": "0 S6 MICHAEL FREILICH",
    "TLE_LINE1": "1 46984U 20086A   23150.64456081 -.00000067  00000-0 -27066-4 0  9992",
    "TLE_LINE2": "2 46984  66.0404 287.8907 0007975 269.8479  90.1622 12.80929005117709",
    "OBJECT_ID": "2020-086A",
    "OBJECT_NUMBER": "46984",
    "SEMIMAJOR_AXIS": "7715.874",
    "PERIOD": "112.418",
    "APOGEE": "1343.893",
    "PERIGEE": "1331.586",
    "DECAYED": "0"
  },
  {
    "COMMENT": "GENERATED VIA SPACETRACK.ORG API",
    "ORIGINATOR": "18 SPCS",
    "NORAD_CAT_ID": "46984",
    "OBJECT_NAME": "S6 MICHAEL FREILICH",
    "OBJECT_TYPE": "PAYLOAD",
    "CLASSIFICATION_TYPE": "U",
    "INTLDES": "20086A",
    "EPOCH": "2023-05-31 02:42:44",
    "EPOCH_MICROSECONDS": "650656",
    "MEAN_MOTION": "12.80929004",
    "ECCENTRICITY": "0.0007969",
    "INCLINATION": "66.0404",
    "RA_OF_ASC_NODE": "286.9176",
    "ARG_OF_PERICENTER": "269.8769",
    "MEAN_ANOMALY": "90.1333",
    "EPHEMERIS_TYPE": "0",
    "ELEMENT_SET_NO": "999",
    "REV_AT_EPOCH": "11789",
    "BSTAR": "-0.000021859",
    "MEAN_MOTION_DOT": "-0.00000066",
    "MEAN_MOTION_DDOT": "0",
    "FILE": "3921499",
    "TLE_LINE0": "0 S6 MICHAEL FREILICH",
    "TLE_LINE1": "1 46984U 20086A   23151.11301679 -.00000066  00000-0 -21859-4 0  9990",
    "TLE_LINE2": "2 46984  66.0404 286.9176 0007969 269.8769  90.1333 12.80929004117890",
    "OBJECT_ID": "2020-086A",
    "OBJECT_NUMBER": "46984",
    "SEMIMAJOR_AXIS": "7715.874",
    "PERIOD": "112.418",
    "APOGEE": "1343.888",
    "PERIGEE": "1331.590",
    "DECAYED": "0"
  },
  {
    "COMMENT": "GENERATED VIA SPACETRACK.ORG API",
    "ORIGINATOR": "18 SPCS",
    "NORAD_CAT_ID": "46984",
    "OBJECT_NAME": "S6 MICHAEL FREILICH",
    "OBJECT_TYPE": "PAYLOAD",
    "CLASSIFICATION_TYPE": "U",
    "INTLDES": "20086A",
    "EPOCH": "2023-05-31 13:57:19",
    "EPOCH_MICROSECONDS": "246464",
    "MEAN_MOTION": "12.80928994",
    "ECCENTRICITY": "0.0007967",
    "INCLINATION": "66.0404",
    "RA_OF_ASC_NODE": "285.9446",
    "ARG_OF_PERICENTER": "269.8343",
    "MEAN_ANOMALY": "90.1759",
    "EPHEMERIS_TYPE": "0",
    "ELEMENT_SET_NO": "999",
    "REV_AT_EPOCH": "11782",
    "BSTAR": "-0.000024051",
    "MEAN_MOTION_DOT": "-0.00000067",
    "MEAN_MOTION_DDOT": "0",
    "FILE": "3921767",
    "TLE_LINE0": "0 S6 MICHAEL FREILICH",
    "TLE_LINE1": "1 46984U 20086A   23151.58147276 -.00000067  00000-0 -24051-4 0  9990",
    "TLE_LINE2": "2 46984  66.0404 285.9446 0007967 269.8343  90.1759 12.80928994117827",
    "OBJECT_ID": "2020-086A",
    "OBJECT_NUMBER": "46984",
    "SEMIMAJOR_AXIS": "7715.874",
    "PERIOD": "112.418",
    "APOGEE": "1343.886",
    "PERIGEE": "1331.592",
    "DECAYED": "0"
  },
  {
    "COMMENT": "GENERATED VIA SPACETRACK.ORG API",
    "ORIGINATOR": "18 SPCS",
    "NORAD_CAT_ID": "46984",
    "OBJECT_NAME": "S6 MICHAEL FREILICH",
    "OBJECT_TYPE": "PAYLOAD",
    "CLASSIFICATION_TYPE": "U",
    "INTLDES": "20086A",
    "EPOCH": "2023-05-31 17:42:10",
    "EPOCH_MICROSECONDS": "760256",
    "MEAN_MOTION": "12.80929094",
    "ECCENTRICITY": "0.0007957",
    "INCLINATION": "66.0416",
    "RA_OF_ASC_NODE": "285.6202",
    "ARG_OF_PERICENTER": "269.925",
    "MEAN_ANOMALY": "90.0854",
    "EPHEMERIS_TYPE": "0",
    "ELEMENT_SET_NO": "999",
    "REV_AT_EPOCH": "11784",
    "BSTAR": "-0.000052872",
    "MEAN_MOTION_DOT": "-0.00000073",
    "MEAN_MOTION_DDOT": "0",
    "FILE": "3922037",
    "TLE_LINE0": "0 S6 MICHAEL FREILICH",
    "TLE_LINE1": "1 46984U 20086A   23151.73762454 -.00000073  00000-0 -52872-4 0  9997",
    "TLE_LINE2": "2 46984  66.0416 285.6202 0007957 269.9250  90.0854 12.80929094117843",
    "OBJECT_ID": "2020-086A",
    "OBJECT_NUMBER": "46984",
    "SEMIMAJOR_AXIS": "7715.874",
    "PERIOD": "112.418",
    "APOGEE": "1343.878",
    "PERIGEE": "1331.599",
    "DECAYED": "0"
  },
  {
    "COMMENT": "GENERATED VIA SPACETRACK.ORG API",
    "ORIGINATOR": "18 SPCS",
    "NORAD_CAT_ID": "46984",
    "OBJECT_NAME": "S6 MICHAEL FREILICH",
    "OBJECT_TYPE": "PAYLOAD",
    "CLASSIFICATION_TYPE": "U",
    "INTLDES": "20086A",
    "EPOCH": "2023-06-01 03:04:19",
    "EPOCH_MICROSECONDS": "587936",
    "MEAN_MOTION": "12.80929083",
    "ECCENTRICITY": "0.0007954",
    "INCLINATION": "66.0416",
    "RA_OF_ASC_NODE": "284.8093",
    "ARG_OF_PERICENTER": "269.9683",
    "MEAN_ANOMALY": "90.042",
    "EPHEMERIS_TYPE": "0",
    "ELEMENT_SET_NO": "999",
    "REV_AT_EPOCH": "11802",
    "BSTAR": "-0.00006631",
    "MEAN_MOTION_DOT": "-0.00000076",
    "MEAN_MOTION_DDOT": "0",
    "FILE": "3922320",
    "TLE_LINE0": "0 S6 MICHAEL FREILICH",
    "TLE_LINE1": "1 46984U 20086A   23152.12800449 -.00000076  00000-0 -66310-4 0  9993",
    "TLE_LINE2": "2 46984  66.0416 284.8093 0007954 269.9683  90.0420 12.80929083118027",
    "OBJECT_ID": "2020-086A",
    "OBJECT_NUMBER": "46984",
    "SEMIMAJOR_AXIS": "7715.874",
    "PERIOD": "112.418",
    "APOGEE": "1343.876",
    "PERIGEE": "1331.602",
    "DECAYED": "0"
  },
  {
    "COMMENT": "GENERATED VIA SPACETRACK.ORG API",
    "ORIGINATOR": "18 SPCS",
    "NORAD_CAT_ID": "46984",
    "OBJECT_NAME": "S6 MICHAEL FREILICH",
    "OBJECT_TYPE": "PAYLOAD",
    "CLASSIFICATION_TYPE": "U",
    "INTLDES": "20086A",
    "EPOCH": "2023-06-01 10:34:02",
    "EPOCH_MICROSECONDS": "646624",
    "MEAN_MOTION": "12.80929092",
    "ECCENTRICITY": "0.0007956",
    "INCLINATION": "66.0416",
    "RA_OF_ASC_NODE": "284.1607",
    "ARG_OF_PERICENTER": "269.928",
    "MEAN_ANOMALY": "90.0824",
    "EPHEMERIS_TYPE": "0",
    "ELEMENT_SET_NO": "999",
    "REV_AT_EPOCH": "11793",
    "BSTAR": "-0.000069943",
    "MEAN_MOTION_DOT": "-0.00000077",
    "MEAN_MOTION_DDOT": "0",
    "FILE": "3922365",
    "TLE_LINE0": "0 S6 MICHAEL FREILICH",
    "TLE_LINE1": "1 46984U 20086A   23152.44030841 -.00000077  00000-0 -69943-4 0  9995",
    "TLE_LINE2": "2 46984  66.0416 284.1607 0007956 269.9280  90.0824 12.80929092117933",
    "OBJECT_ID": "2020-086A",
    "OBJECT_NUMBER": "46984",
    "SEMIMAJOR_AXIS": "7715.874",
    "PERIOD": "112.418",
    "APOGEE": "1343.878",
    "PERIGEE": "1331.600",
    "DECAYED": "0"
  },
  {
    "COMMENT": "GENERATED VIA SPACETRACK.ORG API",
    "ORIGINATOR": "18 SPCS",
    "NORAD_CAT_ID": "46984",
    "OBJECT_NAME": "S6 MICHAEL FREILICH",
    "OBJECT_TYPE": "PAYLOAD",
    "CLASSIFICATION_TYPE": "U",
    "INTLDES": "20086A",
    "EPOCH": "2023-06-01 12:26:28",
    "EPOCH_MICROSECONDS": "412160",
    "MEAN_MOTION": "12.80929087",
    "ECCENTRICITY": "0.0007957",
    "INCLINATION": "66.0416",
    "RA_OF_ASC_NODE": "283.9985",
    "ARG_OF_PERICENTER": "269.9271",
    "MEAN_ANOMALY": "90.0832",
    "EPHEMERIS_TYPE": "0",
    "ELEMENT_SET_NO": "999",
    "REV_AT_EPOCH": "11794",
    "BSTAR": "-0.000068232",
    "MEAN_MOTION_DOT": "-0.00000077",
    "MEAN_MOTION_DDOT": "0",
    "FILE": "3922718",
    "TLE_LINE0": "0 S6 MICHAEL FREILICH",
    "TLE_LINE1": "1 46984U 20086A   23152.51838440 -.00000077  00000-0 -68232-4 0  9994",
    "TLE_LINE2": "2 46984  66.0416 283.9985 0007957 269.9271  90.0832 12.80929087117944",
    "OBJECT_ID": "2020-086A",
    "OBJECT_NUMBER": "46984",
    "SEMIMAJOR_AXIS": "7715.874",
    "PERIOD": "112.418",
    "APOGEE": "1343.878",
    "PERIGEE": "1331.599",
    "DECAYED": "0"
  },
  {
    "COMMENT": "GENERATED VIA SPACETRACK.ORG API",
    "ORIGINATOR": "18 SPCS",
    "NORAD_CAT_ID": "46984",
    "OBJECT_NAME": "S6 MICHAEL FREILICH",
    "OBJECT_TYPE": "PAYLOAD",
    "CLASSIFICATION_TYPE": "U",
    "INTLDES": "20086A",
    "EPOCH": "2023-06-02 10:55:37",
    "EPOCH_MICROSECONDS": "592544",
    "MEAN_MOTION": "12.80929125",
    "ECCENTRICITY": "0.0007971",
    "INCLINATION": "66.0415",
    "RA_OF_ASC_NODE": "282.0526",
    "ARG_OF_PERICENTER": "269.8894",
    "MEAN_ANOMALY": "90.1208",
    "EPHEMERIS_TYPE": "0",
    "ELEMENT_SET_NO": "999",
    "REV_AT_EPOCH": "11819",
    "BSTAR": "-0.000031316",
    "MEAN_MOTION_DOT": "-0.00000068",
    "MEAN_MOTION_DDOT": "0",
    "FILE": "3923218",
    "TLE_LINE0": "0 S6 MICHAEL FREILICH",
    "TLE_LINE1": "1 46984U 20086A   23153.45529621 -.00000068  00000-0 -31316-4 0  9999",
    "TLE_LINE2": "2 46984  66.0415 282.0526 0007971 269.8894  90.1208 12.80929125118199",
    "OBJECT_ID": "2020-086A",
    "OBJECT_NUMBER": "46984",
    "SEMIMAJOR_AXIS": "7715.874",
    "PERIOD": "112.418",
    "APOGEE": "1343.889",
    "PERIGEE": "1331.588",
    "DECAYED": "0"
  }
]